IRIDIUM 33 DEB          
1 34487U 97051GC  17345.87847490  .00000178  00000-0  49947-4 0  9998
2 34487  86.3470 184.5402 0033715  41.4353  22.7392 14.39756954461671
